start=new Date('2022-06-03T00:00:00.000Z').valueOf();
sats=[{"REV_AT_EPOCH":"12248","ELEMENT_SET_NO":"999","FILE":"3477983","SITE":"AFETR","EPHEMERIS_TYPE":"0","TLE_LINE1":"1 45412U 20019BE  22153.81108556  .00000299  00000-0  39007-4 0  9998","INCLINATION":"53.0532","COUNTRY_CODE":"US","PERIOD":"95.592","MEAN_MOTION_DOT":"0.00000299","BSTAR":"0.00003900700000","GP_ID":"205209064","MEAN_MOTION":"15.06399159","OBJECT_NAME":"STARLINK-1296","RA_OF_ASC_NODE":"193.1777","REF_FRAME":"TEME","OBJECT_ID":"2020-019BE","NORAD_CAT_ID":"45412","TLE_LINE2":"2 45412  53.0532 193.1777 0001677  60.2154 299.9002 15.06399159122486","CENTER_NAME":"EARTH","EPOCH":"2022-06-02T19:27:57.792384","ECCENTRICITY":"0.00016770","MEAN_ANOMALY":"299.9002","DECAY_DATE":null,"MEAN_MOTION_DDOT":"0.0000000000000","OBJECT_TYPE":"PAYLOAD","ARG_OF_PERICENTER":"60.2154","MEAN_ELEMENT_THEORY":"SGP4","TIME_SYSTEM":"UTC","PERIAPSIS":"546.055","APOAPSIS":"548.378","SEMIMAJOR_AXIS":"6925.351","LAUNCH_DATE":"2020-03-18","RCS_SIZE":"LARGE","CLASSIFICATION_TYPE":"U"},{"REV_AT_EPOCH":"12252","SITE":"AFETR","EPHEMERIS_TYPE":"0","FILE":"3477482","ELEMENT_SET_NO":"999","MEAN_MOTION_DOT":"0.00001524","PERIOD":"95.592","COUNTRY_CODE":"US","INCLINATION":"53.0532","TLE_LINE1":"1 45413U 20019BF  22153.44249183  .00001524  00000-0  12119-3 0  9996","MEAN_MOTION":"15.06400854","GP_ID":"205173483","BSTAR":"0.00012119000000","TLE_LINE2":"2 45413  53.0532 194.8258 0001362  63.6254 296.4875 15.06400854122528","NORAD_CAT_ID":"45413","OBJECT_ID":"2020-019BF","REF_FRAME":"TEME","OBJECT_NAME":"STARLINK-1298","RA_OF_ASC_NODE":"194.8258","ECCENTRICITY":"0.00013620","MEAN_ANOMALY":"296.4875","EPOCH":"2022-06-02T10:37:11.294112","CENTER_NAME":"EARTH","TIME_SYSTEM":"UTC","MEAN_ELEMENT_THEORY":"SGP4","ARG_OF_PERICENTER":"63.6254","DECAY_DATE":null,"OBJECT_TYPE":"PAYLOAD","MEAN_MOTION_DDOT":"0.0000000000000","LAUNCH_DATE":"2020-03-18","RCS_SIZE":"LARGE","CLASSIFICATION_TYPE":"U","SEMIMAJOR_AXIS":"6925.346","APOAPSIS":"548.154","PERIAPSIS":"546.268"},{"REV_AT_EPOCH":"12247","SITE":"AFETR","EPHEMERIS_TYPE":"0","FILE":"3477983","ELEMENT_SET_NO":"999","MEAN_MOTION_DOT":"0.00001379","PERIOD":"95.593","COUNTRY_CODE":"US","INCLINATION":"53.0533","TLE_LINE1":"1 45414U 20019BG  22153.82584624  .00001379  00000-0  11150-3 0  9993","MEAN_MOTION":"15.06394287","BSTAR":"0.00011150000000","GP_ID":"205210066","TLE_LINE2":"2 45414  53.0533 193.1010 0001515  57.6634 302.4501 15.06394287122473","NORAD_CAT_ID":"45414","REF_FRAME":"TEME","OBJECT_ID":"2020-019BG","OBJECT_NAME":"STARLINK-1309","RA_OF_ASC_NODE":"193.1010","ECCENTRICITY":"0.00015150","MEAN_ANOMALY":"302.4501","EPOCH":"2022-06-02T19:49:13.115136","CENTER_NAME":"EARTH","TIME_SYSTEM":"UTC","MEAN_ELEMENT_THEORY":"SGP4","ARG_OF_PERICENTER":"57.6634","OBJECT_TYPE":"PAYLOAD","DECAY_DATE":null,"MEAN_MOTION_DDOT":"0.0000000000000","LAUNCH_DATE":"2020-03-18","SEMIMAJOR_AXIS":"6925.366","RCS_SIZE":"LARGE","CLASSIFICATION_TYPE":"U","APOAPSIS":"548.280","PERIAPSIS":"546.182"},{"REV_AT_EPOCH":"12249","SITE":"AFETR","EPHEMERIS_TYPE":"0","FILE":"3477983","ELEMENT_SET_NO":"999","MEAN_MOTION_DOT":"0.00000219","COUNTRY_CODE":"US","PERIOD":"95.592","INCLINATION":"53.0538","TLE_LINE1":"1 45415U 20019BH  22153.71893342  .00000219  00000-0  33583-4 0  9999","MEAN_MOTION":"15.06405379","BSTAR":"0.00003358300000","GP_ID":"205210315","TLE_LINE2":"2 45415  53.0538 193.5914 0001421  71.6541 288.4602 15.06405379122497","NORAD_CAT_ID":"45415","REF_FRAME":"TEME","OBJECT_ID":"2020-019BH","OBJECT_NAME":"STARLINK-1316","RA_OF_ASC_NODE":"193.5914","MEAN_ANOMALY":"288.4602","ECCENTRICITY":"0.00014210","CENTER_NAME":"EARTH","EPOCH":"2022-06-02T17:15:15.847488","TIME_SYSTEM":"UTC","MEAN_MOTION_DDOT":"0.0000000000000","DECAY_DATE":null,"OBJECT_TYPE":"PAYLOAD","MEAN_ELEMENT_THEORY":"SGP4","ARG_OF_PERICENTER":"71.6541","RCS_SIZE":"LARGE","LAUNCH_DATE":"2020-03-18","SEMIMAJOR_AXIS":"6925.332","CLASSIFICATION_TYPE":"U","APOAPSIS":"548.181","PERIAPSIS":"546.213"},{"TLE_LINE1":"1 45416U 20019BJ  22153.81846998 -.00000345  00000-0 -42853-5 0  9999","INCLINATION":"53.0530","COUNTRY_CODE":"US","PERIOD":"95.593","MEAN_MOTION_DOT":"-0.00000345","GP_ID":"205208564","BSTAR":"-0.00000428530000","MEAN_MOTION":"15.06391946","REV_AT_EPOCH":"12249","ELEMENT_SET_NO":"999","FILE":"3477983","EPHEMERIS_TYPE":"0","SITE":"AFETR","DECAY_DATE":null,"OBJECT_TYPE":"PAYLOAD","MEAN_MOTION_DDOT":"0.0000000000000","ARG_OF_PERICENTER":"72.8126","MEAN_ELEMENT_THEORY":"SGP4","TIME_SYSTEM":"UTC","PERIAPSIS":"546.170","APOAPSIS":"548.306","LAUNCH_DATE":"2020-03-18","SEMIMAJOR_AXIS":"6925.373","RCS_SIZE":"LARGE","CLASSIFICATION_TYPE":"U","RA_OF_ASC_NODE":"193.1559","OBJECT_NAME":"STARLINK-1318","OBJECT_ID":"2020-019BJ","REF_FRAME":"TEME","NORAD_CAT_ID":"45416","TLE_LINE2":"2 45416  53.0530 193.1559 0001542  72.8126 287.3032 15.06391946122496","CENTER_NAME":"EARTH","EPOCH":"2022-06-02T19:38:35.806272","MEAN_ANOMALY":"287.3032","ECCENTRICITY":"0.00015420"},{"TIME_SYSTEM":"UTC","MEAN_MOTION_DDOT":"0.0000000000000","DECAY_DATE":null,"OBJECT_TYPE":"PAYLOAD","ARG_OF_PERICENTER":"78.7330","MEAN_ELEMENT_THEORY":"SGP4","APOAPSIS":"548.215","LAUNCH_DATE":"2020-03-18","RCS_SIZE":"LARGE","SEMIMAJOR_AXIS":"6925.352","CLASSIFICATION_TYPE":"U","PERIAPSIS":"546.219","TLE_LINE2":"2 45417  53.0529 223.7155 0001441  78.7330 281.3821 15.06398755122324","NORAD_CAT_ID":"45417","RA_OF_ASC_NODE":"223.7155","OBJECT_NAME":"STARLINK-1286","REF_FRAME":"TEME","OBJECT_ID":"2020-019BK","MEAN_ANOMALY":"281.3821","ECCENTRICITY":"0.00014410","CENTER_NAME":"EARTH","EPOCH":"2022-06-02T16:34:08.177088","COUNTRY_CODE":"US","PERIOD":"95.592","MEAN_MOTION_DOT":"0.00000404","TLE_LINE1":"1 45417U 20019BK  22153.69037242  .00000404  00000-0  46013-4 0  9995","INCLINATION":"53.0529","GP_ID":"205208814","BSTAR":"0.00004601300000","MEAN_MOTION":"15.06398755","REV_AT_EPOCH":"12232","FILE":"3477983","EPHEMERIS_TYPE":"0","SITE":"AFETR","ELEMENT_SET_NO":"999"},{"ELEMENT_SET_NO":"999","FILE":"3477983","SITE":"AFETR","EPHEMERIS_TYPE":"0","REV_AT_EPOCH":"12173","GP_ID":"205209566","BSTAR":"0.00048986000000","MEAN_MOTION":"15.05753930","TLE_LINE1":"1 45418U 20019BL  22153.76738919  .00006898  00000-0  48986-3 0  9996","INCLINATION":"52.9982","COUNTRY_CODE":"US","PERIOD":"95.633","MEAN_MOTION_DOT":"0.00006898","CENTER_NAME":"EARTH","EPOCH":"2022-06-02T18:25:02.426016","MEAN_ANOMALY":"357.3568","ECCENTRICITY":"0.00008960","RA_OF_ASC_NODE":"244.9802","OBJECT_NAME":"STARLINK-1299","OBJECT_ID":"2020-019BL","REF_FRAME":"TEME","NORAD_CAT_ID":"45418","TLE_LINE2":"2 45418  52.9982 244.9802 0000896   2.7424 357.3568 15.05753930121739","PERIAPSIS":"548.574","APOAPSIS":"549.815","RCS_SIZE":"LARGE","LAUNCH_DATE":"2020-03-18","SEMIMAJOR_AXIS":"6927.329","CLASSIFICATION_TYPE":"U","DECAY_DATE":null,"MEAN_MOTION_DDOT":"0.0000000000000","OBJECT_TYPE":"PAYLOAD","ARG_OF_PERICENTER":"2.7424","MEAN_ELEMENT_THEORY":"SGP4","TIME_SYSTEM":"UTC"},{"COUNTRY_CODE":"US","PERIOD":"95.592","MEAN_MOTION_DOT":"0.00001157","TLE_LINE1":"1 45419U 20019BM  22153.55399166  .00001157  00000-0  96530-4 0  9993","INCLINATION":"53.0529","BSTAR":"0.00009653000000","GP_ID":"205209815","MEAN_MOTION":"15.06406525","REV_AT_EPOCH":"12205","FILE":"3477983","EPHEMERIS_TYPE":"0","SITE":"AFETR","ELEMENT_SET_NO":"999","TIME_SYSTEM":"UTC","DECAY_DATE":null,"OBJECT_TYPE":"PAYLOAD","MEAN_MOTION_DDOT":"0.0000000000000","ARG_OF_PERICENTER":"73.5789","MEAN_ELEMENT_THEORY":"SGP4","APOAPSIS":"548.160","LAUNCH_DATE":"2020-03-18","RCS_SIZE":"LARGE","CLASSIFICATION_TYPE":"U","SEMIMAJOR_AXIS":"6925.329","PERIAPSIS":"546.227","NORAD_CAT_ID":"45419","TLE_LINE2":"2 45419  53.0529 224.3410 0001395  73.5789 286.5353 15.06406525122058","OBJECT_NAME":"STARLINK-1308","RA_OF_ASC_NODE":"224.3410","OBJECT_ID":"2020-019BM","REF_FRAME":"TEME","MEAN_ANOMALY":"286.5353","ECCENTRICITY":"0.00013950","CENTER_NAME":"EARTH","EPOCH":"2022-06-02T13:17:44.879424"},{"PERIAPSIS":"545.996","RCS_SIZE":"LARGE","LAUNCH_DATE":"2020-04-22","SEMIMAJOR_AXIS":"6925.339","CLASSIFICATION_TYPE":"U","APOAPSIS":"548.411","DECAY_DATE":null,"OBJECT_TYPE":"PAYLOAD","MEAN_MOTION_DDOT":"0.0000000000000","ARG_OF_PERICENTER":"60.8047","MEAN_ELEMENT_THEORY":"SGP4","TIME_SYSTEM":"UTC","CENTER_NAME":"EARTH","EPOCH":"2022-06-02T17:19:15.325824","ECCENTRICITY":"0.00017440","MEAN_ANOMALY":"299.3116","OBJECT_ID":"2020-025A","REF_FRAME":"TEME","OBJECT_NAME":"STARLINK-1329","RA_OF_ASC_NODE":"163.5854","NORAD_CAT_ID":"45531","TLE_LINE2":"2 45531  53.0536 163.5854 0001744  60.8047 299.3116 15.06403259117707","MEAN_MOTION":"15.06403259","BSTAR":"0.00016789000000","GP_ID":"205210078","INCLINATION":"53.0536","TLE_LINE1":"1 45531U 20025A   22153.72170516  .00002220  00000-0  16789-3 0  9999","MEAN_MOTION_DOT":"0.00002220","COUNTRY_CODE":"US","PERIOD":"95.592","ELEMENT_SET_NO":"999","EPHEMERIS_TYPE":"0","SITE":"AFETR","FILE":"3477983","REV_AT_EPOCH":"11770"},{"ELEMENT_SET_NO":"999","EPHEMERIS_TYPE":"0","SITE":"AFETR","FILE":"3477983","REV_AT_EPOCH":"11770","MEAN_MOTION":"15.06393039","GP_ID":"205210327","BSTAR":"0.00007286700000","INCLINATION":"53.0542","TLE_LINE1":"1 45532U 20025B   22153.73276803  .00000804  00000-0  72867-4 0  9993","MEAN_MOTION_DOT":"0.00000804","PERIOD":"95.593","COUNTRY_CODE":"US","EPOCH":"2022-06-02T17:35:11.157792","CENTER_NAME":"EARTH","ECCENTRICITY":"0.00016840","MEAN_ANOMALY":"302.4421","OBJECT_ID":"2020-025B","REF_FRAME":"TEME","RA_OF_ASC_NODE":"163.5327","OBJECT_NAME":"STARLINK-1338","NORAD_CAT_ID":"45532","TLE_LINE2":"2 45532  53.0542 163.5327 0001684  57.6731 302.4421 15.06393039117706","PERIAPSIS":"546.069","LAUNCH_DATE":"2020-04-22","CLASSIFICATION_TYPE":"U","RCS_SIZE":"LARGE","SEMIMAJOR_AXIS":"6925.370","APOAPSIS":"548.401","MEAN_ELEMENT_THEORY":"SGP4","ARG_OF_PERICENTER":"57.6731","OBJECT_TYPE":"PAYLOAD","DECAY_DATE":null,"MEAN_MOTION_DDOT":"0.0000000000000","TIME_SYSTEM":"UTC"}];
